{
"type": "FeatureCollection",
"name": "01_candidate_cells",
"crs": { "type": "name", "properties": { "name": "urn:ogc:def:crs:OGC:1.3:CRS84" } },
"features": [
{ "type": "Feature", "properties": { "unit_id": "c-665_r469", "col": -665, "row": 469, "frac_2022": 0.084195416022030914, "frac_2023": 0.61335677173435221, "perm_water": 0, "x_3310": -166125.0, "y_3310": -117375.0, "county_geoid": "06087", "county": "Santa Cruz", "lon": -121.868077, "lat": 36.945757 }, "geometry": { "type": "Polygon", "coordinates": [ [ [ -121.866644279345721, 36.944654761175904 ], [ -121.866699622562138, 36.946903491751577 ], [ -121.869510189033136, 36.946859177111904 ], [ -121.869454762533252, 36.944610447821823 ], [ -121.866644279345721, 36.944654761175904 ] ] ] } },
{ "type": "Feature", "properties": { "unit_id": "c-665_r470", "col": -665, "row": 470, "frac_2022": 0.070614565535009124, "frac_2023": 0.77005276888105634, "perm_water": 0, "x_3310": -166125.0, "y_3310": -117625.0, "county_geoid": "06087", "county": "Santa Cruz", "lon": -121.868022, "lat": 36.943508 }, "geometry": { "type": "Polygon", "coordinates": [ [ [ -121.866588939410363, 36.942406029148778 ], [ -121.866644279345721, 36.944654761175904 ], [ -121.869454762533252, 36.944610447821823 ], [ -121.869399339319372, 36.942361717080182 ], [ -121.866588939410363, 36.942406029148778 ] ] ] } },
{ "type": "Feature", "properties": { "unit_id": "c-661_r473", "col": -661, "row": 473, "frac_2022": 0.13807441422945305, "frac_2023": 0.71130945848534777, "perm_water": 0, "x_3310": -165125.0, "y_3310": -118375.0, "county_geoid": "06087", "county": "Santa Cruz", "lon": -121.856615, "lat": 36.936939 }, "geometry": { "type": "Polygon", "coordinates": [ [ [ -121.855182306125911, 36.935836390638791 ], [ -121.855237303161999, 36.93808513216127 ], [ -121.85804754961994, 36.938041089286592 ], [ -121.857992469318958, 36.935792349041435 ], [ -121.855182306125911, 36.935836390638791 ] ] ] } },
{ "type": "Feature", "properties": { "unit_id": "c-660_r473", "col": -660, "row": 473, "frac_2022": 0.057444534994636566, "frac_2023": 0.61860588853912757, "perm_water": 0, "x_3310": -164875.0, "y_3310": -118375.0, "county_geoid": "06087", "county": "Santa Cruz", "lon": -121.853805, "lat": 36.936983 }, "geometry": { "type": "Polygon", "coordinates": [ [ [ -121.852372139672681, 36.935880365581973 ], [ -121.852427053443577, 36.938129108379805 ], [ -121.855237303161999, 36.93808513216127 ], [ -121.855182306125911, 36.935836390638791 ], [ -121.852372139672681, 36.935880365581973 ] ] ] } },
{ "type": "Feature", "properties": { "unit_id": "c-659_r473", "col": -659, "row": 473, "frac_2022": 0.063677635588566359, "frac_2023": 0.68317939909501346, "perm_water": 0, "x_3310": -164625.0, "y_3310": -118375.0, "county_geoid": "06087", "county": "Santa Cruz", "lon": -121.850994, "lat": 36.937027 }, "geometry": { "type": "Polygon", "coordinates": [ [ [ -121.849561969964213, 36.935924273870825 ], [ -121.849616800469647, 36.938173017942056 ], [ -121.852427053443577, 36.938129108379805 ], [ -121.852372139672681, 36.935880365581973 ], [ -121.849561969964213, 36.935924273870825 ] ] ] } },
{ "type": "Feature", "properties": { "unit_id": "c-661_r474", "col": -661, "row": 474, "frac_2022": 0.25624801768558048, "frac_2023": 1.0, "perm_water": 0, "x_3310": -165125.0, "y_3310": -118625.0, "county_geoid": "06087", "county": "Santa Cruz", "lon": -121.85656, "lat": 36.93469 }, "geometry": { "type": "Polygon", "coordinates": [ [ [ -121.855127312350007, 36.933587647652004 ], [ -121.855182306125911, 36.935836390638791 ], [ -121.857992469318958, 36.935792349041435 ], [ -121.857937392283091, 36.933543607331799 ], [ -121.855127312350007, 36.933587647652004 ] ] ] } },
{ "type": "Feature", "properties": { "unit_id": "c-660_r474", "col": -660, "row": 474, "frac_2022": 0.60992234100560949, "frac_2023": 0.98559999999881409, "perm_water": 0, "x_3310": -164875.0, "y_3310": -118625.0, "county_geoid": "06087", "county": "Santa Cruz", "lon": -121.85375, "lat": 36.934734 }, "geometry": { "type": "Polygon", "coordinates": [ [ [ -121.852317229157009, 36.933631621319918 ], [ -121.852372139672681, 36.935880365581973 ], [ -121.855182306125911, 36.935836390638791 ], [ -121.855127312350007, 36.933587647652004 ], [ -121.852317229157009, 36.933631621319918 ] ] ] } },
{ "type": "Feature", "properties": { "unit_id": "c-659_r474", "col": -659, "row": 474, "frac_2022": 0.44502778526098907, "frac_2023": 0.81678215315734293, "perm_water": 0, "x_3310": -164625.0, "y_3310": -118625.0, "county_geoid": "06087", "county": "Santa Cruz", "lon": -121.85094, "lat": 36.934778 }, "geometry": { "type": "Polygon", "coordinates": [ [ [ -121.849507142709086, 36.933675528335435 ], [ -121.849561969964213, 36.935924273870825 ], [ -121.852372139672681, 36.935880365581973 ], [ -121.852317229157009, 36.933631621319918 ], [ -121.849507142709086, 36.933675528335435 ] ] ] } },
{ "type": "Feature", "properties": { "unit_id": "c-658_r474", "col": -658, "row": 474, "frac_2022": 0.01439999999951585, "frac_2023": 0.68008918424917786, "perm_water": 0, "x_3310": -164375.0, "y_3310": -118625.0, "county_geoid": "06087", "county": "Santa Cruz", "lon": -121.848129, "lat": 36.934822 }, "geometry": { "type": "Polygon", "coordinates": [ [ [ -121.846697053011141, 36.933719368698455 ], [ -121.846751797005439, 36.935968115505212 ], [ -121.849561969964213, 36.935924273870825 ], [ -121.849507142709086, 36.933675528335435 ], [ -121.846697053011141, 36.933719368698455 ] ] ] } },
{ "type": "Feature", "properties": { "unit_id": "c-661_r475", "col": -661, "row": 475, "frac_2022": 0.15620298621321971, "frac_2023": 0.90292431055424205, "perm_water": 0, "x_3310": -165125.0, "y_3310": -118875.0, "county_geoid": "06087", "county": "Santa Cruz", "lon": -121.856505, "lat": 36.932441 }, "geometry": { "type": "Polygon", "coordinates": [ [ [ -121.855072321833973, 36.931338903197464 ], [ -121.855127312350007, 36.933587647652004 ], [ -121.857937392283091, 36.933543607331799 ], [ -121.85788231851204, 36.93129486415426 ], [ -121.855072321833973, 36.931338903197464 ] ] ] } },
{ "type": "Feature", "properties": { "unit_id": "c-660_r475", "col": -660, "row": 475, "frac_2022": 0.39081349037088026, "frac_2023": 0.9425779610894286, "perm_water": 0, "x_3310": -164875.0, "y_3310": -118875.0, "county_geoid": "06087", "county": "Santa Cruz", "lon": -121.853695, "lat": 36.932485 }, "geometry": { "type": "Polygon", "coordinates": [ [ [ -121.852262321896291, 36.931382875590309 ], [ -121.852317229157009, 36.933631621319918 ], [ -121.855127312350007, 36.933587647652004 ], [ -121.855072321833973, 36.931338903197464 ], [ -121.852262321896291, 36.931382875590309 ] ] ] } },
{ "type": "Feature", "properties": { "unit_id": "c-659_r475", "col": -659, "row": 475, "frac_2022": 0.2072017003861881, "frac_2023": 0.75628882546964638, "perm_water": 0, "x_3310": -164625.0, "y_3310": -118875.0, "county_geoid": "06087", "county": "Santa Cruz", "lon": -121.850885, "lat": 36.932529 }, "geometry": { "type": "Polygon", "coordinates": [ [ [ -121.849452318703996, 36.931426781332654 ], [ -121.849507142709086, 36.933675528335435 ], [ -121.852317229157009, 36.933631621319918 ], [ -121.852262321896291, 36.931382875590309 ], [ -121.849452318703996, 36.931426781332654 ] ] ] } },
{ "type": "Feature", "properties": { "unit_id": "c-658_r475", "col": -658, "row": 475, "frac_2022": 0.028799999999774839, "frac_2023": 0.63500020118956235, "perm_water": 0, "x_3310": -164375.0, "y_3310": -118875.0, "county_geoid": "06087", "county": "Santa Cruz", "lon": -121.848075, "lat": 36.932573 }, "geometry": { "type": "Polygon", "coordinates": [ [ [ -121.846642312261935, 36.931470620424442 ], [ -121.846697053011141, 36.933719368698455 ], [ -121.849507142709086, 36.933675528335435 ], [ -121.849452318703996, 36.931426781332654 ], [ -121.846642312261935, 36.931470620424442 ] ] ] } },
{ "type": "Feature", "properties": { "unit_id": "c-660_r476", "col": -660, "row": 476, "frac_2022": 0.014399999999134888, "frac_2023": 0.80260415677421315, "perm_water": 0, "x_3310": -164875.0, "y_3310": -119125.0, "county_geoid": "06087", "county": "Santa Cruz", "lon": -121.85364, "lat": 36.930237 }, "geometry": { "type": "Polygon", "coordinates": [ [ [ -121.852207417890256, 36.929134128389684 ], [ -121.852262321896291, 36.931382875590309 ], [ -121.855072321833973, 36.931338903197464 ], [ -121.855017334577525, 36.929090157271759 ], [ -121.852207417890256, 36.929134128389684 ] ] ] } },
{ "type": "Feature", "properties": { "unit_id": "c-659_r476", "col": -659, "row": 476, "frac_2022": 0.10163651434781927, "frac_2023": 0.85404002676721247, "perm_water": 0, "x_3310": -164625.0, "y_3310": -119125.0, "county_geoid": "06087", "county": "Santa Cruz", "lon": -121.85083, "lat": 36.93028 }, "geometry": { "type": "Polygon", "coordinates": [ [ [ -121.849397497948615, 36.929178032859035 ], [ -121.849452318703996, 36.931426781332654 ], [ -121.852262321896291, 36.931382875590309 ], [ -121.852207417890256, 36.929134128389684 ], [ -121.849397497948615, 36.929178032859035 ] ] ] } },
{ "type": "Feature", "properties": { "unit_id": "c-651_r484", "col": -651, "row": 484, "frac_2022": 0.055283402820436749, "frac_2023": 0.60938097373487499, "perm_water": 0, "x_3310": -162625.0, "y_3310": -121125.0, "county_geoid": "06087", "county": "Santa Cruz", "lon": -121.827917, "lat": 36.912639 }, "geometry": { "type": "Polygon", "coordinates": [ [ [ -121.826484899468753, 36.911536747231644 ], [ -121.826539028536374, 36.913785517699154 ], [ -121.829348391702709, 36.913742155221335 ], [ -121.829294179421566, 36.911493386010328 ], [ -121.826484899468753, 36.911536747231644 ] ] ] } },
{ "type": "Feature", "properties": { "unit_id": "c-651_r485", "col": -651, "row": 485, "frac_2022": 0.072000000004727865, "frac_2023": 0.70714996632103178, "perm_water": 0, "x_3310": -162625.0, "y_3310": -121375.0, "county_geoid": "06087", "county": "Santa Cruz", "lon": -121.827862, "lat": 36.910391 }, "geometry": { "type": "Polygon", "coordinates": [ [ [ -121.82643077360882, 36.909287975264 ], [ -121.826484899468753, 36.911536747231644 ], [ -121.829294179421566, 36.911493386010328 ], [ -121.829239970353029, 36.909244615299009 ], [ -121.82643077360882, 36.909287975264 ] ] ] } },
{ "type": "Feature", "properties": { "unit_id": "c-650_r485", "col": -650, "row": 485, "frac_2022": 0.17104509193011713, "frac_2023": 0.67973277952187805, "perm_water": 0, "x_3310": -162375.0, "y_3310": -121375.0, "county_geoid": "06087", "county": "Santa Cruz", "lon": -121.825053, "lat": 36.910434 }, "geometry": { "type": "Polygon", "coordinates": [ [ [ -121.823621573657206, 36.909331268596887 ], [ -121.823675616308222, 36.911580041818851 ], [ -121.826484899468753, 36.911536747231644 ], [ -121.82643077360882, 36.909287975264 ], [ -121.823621573657206, 36.909331268596887 ] ] ] } },
{ "type": "Feature", "properties": { "unit_id": "c-650_r486", "col": -650, "row": 486, "frac_2022": 0.0, "frac_2023": 0.67537353102866715, "perm_water": 0, "x_3310": -162375.0, "y_3310": -121625.0, "county_geoid": "06087", "county": "Santa Cruz", "lon": -121.824999, "lat": 36.908185 }, "geometry": { "type": "Polygon", "coordinates": [ [ [ -121.823567534208678, 36.907082493871535 ], [ -121.823621573657206, 36.909331268596887 ], [ -121.82643077360882, 36.909287975264 ], [ -121.826376650956334, 36.90703920179299 ], [ -121.823567534208678, 36.907082493871535 ] ] ] } },
{ "type": "Feature", "properties": { "unit_id": "c-649_r486", "col": -649, "row": 486, "frac_2022": 0.012654086536222547, "frac_2023": 0.73642387293319744, "perm_water": 0, "x_3310": -162125.0, "y_3310": -121625.0, "county_geoid": "06087", "county": "Santa Cruz", "lon": -121.82219, "lat": 36.908229 }, "geometry": { "type": "Polygon", "coordinates": [ [ [ -121.820758414258805, 36.90712571931973 ], [ -121.820812370503077, 36.909374495297357 ], [ -121.823621573657206, 36.909331268596887 ], [ -121.823567534208678, 36.907082493871535 ], [ -121.820758414258805, 36.90712571931973 ] ] ] } },
{ "type": "Feature", "properties": { "unit_id": "c-653_r487", "col": -653, "row": 487, "frac_2022": 0.17613622445842936, "frac_2023": 0.63302125849620516, "perm_water": 0, "x_3310": -163125.0, "y_3310": -121875.0, "county_geoid": "06087", "county": "Santa Cruz", "lon": -121.833372, "lat": 36.905806 }, "geometry": { "type": "Polygon", "coordinates": [ [ [ -121.831940588982746, 36.904703645281266 ], [ -121.831994874825313, 36.906952417745131 ], [ -121.834803981936759, 36.906908925776115 ], [ -121.834749612896019, 36.904660154572085 ], [ -121.831940588982746, 36.904703645281266 ] ] ] } },
{ "type": "Feature", "properties": { "unit_id": "c-652_r487", "col": -652, "row": 487, "frac_2022": 0.30273663433069553, "frac_2023": 0.83373508437493482, "perm_water": 0, "x_3310": -162875.0, "y_3310": -121875.0, "county_geoid": "06087", "county": "Santa Cruz", "lon": -121.830563, "lat": 36.90585 }, "geometry": { "type": "Polygon", "coordinates": [ [ [ -121.829131561852776, 36.904747069362251 ], [ -121.82918576449687, 36.90699584308414 ], [ -121.831994874825313, 36.906952417745131 ], [ -121.831940588982746, 36.904703645281266 ], [ -121.829131561852776, 36.904747069362251 ] ] ] } },
{ "type": "Feature", "properties": { "unit_id": "c-654_r488", "col": -654, "row": 488, "frac_2022": 0.45013401684675552, "frac_2023": 0.87100043666599636, "perm_water": 0, "x_3310": -163375.0, "y_3310": -122125.0, "county_geoid": "06087", "county": "Santa Cruz", "lon": -121.836127, "lat": 36.903514 }, "geometry": { "type": "Polygon", "coordinates": [ [ [ -121.834695247076908, 36.902411381857448 ], [ -121.834749612896019, 36.904660154572085 ], [ -121.837558633587648, 36.904616597234934 ], [ -121.837504184575565, 36.90236782578198 ], [ -121.834695247076908, 36.902411381857448 ] ] ] } },
{ "type": "Feature", "properties": { "unit_id": "c-653_r488", "col": -653, "row": 488, "frac_2022": 0.38702745048531939, "frac_2023": 0.95431599370619047, "perm_water": 0, "x_3310": -163125.0, "y_3310": -122125.0, "county_geoid": "06087", "county": "Santa Cruz", "lon": -121.833318, "lat": 36.903558 }, "geometry": { "type": "Polygon", "coordinates": [ [ [ -121.831886306356893, 36.90245487130683 ], [ -121.831940588982746, 36.904703645281266 ], [ -121.834749612896019, 36.904660154572085 ], [ -121.834695247076908, 36.902411381857448 ], [ -121.831886306356893, 36.90245487130683 ] ] ] } },
{ "type": "Feature", "properties": { "unit_id": "c-652_r488", "col": -652, "row": 488, "frac_2022": 0.42673325404312018, "frac_2023": 0.88640996526591176, "perm_water": 0, "x_3310": -162875.0, "y_3310": -122125.0, "county_geoid": "06087", "county": "Santa Cruz", "lon": -121.830509, "lat": 36.903601 }, "geometry": { "type": "Polygon", "coordinates": [ [ [ -121.829077362420463, 36.902498294130034 ], [ -121.829131561852776, 36.904747069362251 ], [ -121.831940588982746, 36.904703645281266 ], [ -121.831886306356893, 36.90245487130683 ], [ -121.829077362420463, 36.902498294130034 ] ] ] } },
{ "type": "Feature", "properties": { "unit_id": "c-651_r488", "col": -651, "row": 488, "frac_2022": 0.38217513682914339, "frac_2023": 0.75168809833597505, "perm_water": 0, "x_3310": -162625.0, "y_3310": -122125.0, "county_geoid": "06087", "county": "Santa Cruz", "lon": -121.8277, "lat": 36.903644 }, "geometry": { "type": "Polygon", "coordinates": [ [ [ -121.826268415272509, 36.902541650326931 ], [ -121.826322531511011, 36.904790426815026 ], [ -121.829131561852776, 36.904747069362251 ], [ -121.829077362420463, 36.902498294130034 ], [ -121.826268415272509, 36.902541650326931 ] ] ] } },
{ "type": "Feature", "properties": { "unit_id": "c-655_r489", "col": -655, "row": 489, "frac_2022": 0.66304692864781956, "frac_2023": 0.94563013095260096, "perm_water": 0, "x_3310": -163625.0, "y_3310": -122375.0, "county_geoid": "06087", "county": "Santa Cruz", "lon": -121.838881, "lat": 36.901222 }, "geometry": { "type": "Polygon", "coordinates": [ [ [ -121.837449738789743, 36.900119052814915 ], [ -121.837504184575565, 36.90236782578198 ], [ -121.840313118847931, 36.902324203080582 ], [ -121.840258589874352, 36.900075431376948 ], [ -121.837449738789743, 36.900119052814915 ] ] ] } },
{ "type": "Feature", "properties": { "unit_id": "c-654_r489", "col": -654, "row": 489, "frac_2022": 0.65619459237883693, "frac_2023": 0.90926132766750023, "perm_water": 0, "x_3310": -163375.0, "y_3310": -122375.0, "county_geoid": "06087", "county": "Santa Cruz", "lon": -121.836073, "lat": 36.901265 }, "geometry": { "type": "Polygon", "coordinates": [ [ [ -121.834640884479128, 36.90016260762885 ], [ -121.834695247076908, 36.902411381857448 ], [ -121.837504184575565, 36.90236782578198 ], [ -121.837449738789743, 36.900119052814915 ], [ -121.834640884479128, 36.90016260762885 ] ] ] } },
{ "type": "Feature", "properties": { "unit_id": "c-653_r489", "col": -653, "row": 489, "frac_2022": 0.44109645107469647, "frac_2023": 0.84675585277982757, "perm_water": 0, "x_3310": -163125.0, "y_3310": -122375.0, "county_geoid": "06087", "county": "Santa Cruz", "lon": -121.833264, "lat": 36.901309 }, "geometry": { "type": "Polygon", "coordinates": [ [ [ -121.831832026947467, 36.900206095818611 ], [ -121.831886306356893, 36.90245487130683 ], [ -121.834695247076908, 36.902411381857448 ], [ -121.834640884479128, 36.90016260762885 ], [ -121.831832026947467, 36.900206095818611 ] ] ] } },
{ "type": "Feature", "properties": { "unit_id": "c-652_r489", "col": -652, "row": 489, "frac_2022": 0.37717013024656931, "frac_2023": 0.86714924036565288, "perm_water": 0, "x_3310": -162875.0, "y_3310": -122375.0, "county_geoid": "06087", "county": "Santa Cruz", "lon": -121.830455, "lat": 36.901352 }, "geometry": { "type": "Polygon", "coordinates": [ [ [ -121.829023166199633, 36.900249517384147 ], [ -121.829077362420463, 36.902498294130034 ], [ -121.831886306356893, 36.90245487130683 ], [ -121.831832026947467, 36.900206095818611 ], [ -121.829023166199633, 36.900249517384147 ] ] ] } },
{ "type": "Feature", "properties": { "unit_id": "c-651_r489", "col": -651, "row": 489, "frac_2022": 0.27592538544755979, "frac_2023": 0.61125166565630851, "perm_water": 0, "x_3310": -162625.0, "y_3310": -122375.0, "county_geoid": "06087", "county": "Santa Cruz", "lon": -121.827646, "lat": 36.901396 }, "geometry": { "type": "Polygon", "coordinates": [ [ [ -121.826214302240601, 36.900292872325259 ], [ -121.826268415272509, 36.902541650326931 ], [ -121.829077362420463, 36.902498294130034 ], [ -121.829023166199633, 36.900249517384147 ], [ -121.826214302240601, 36.900292872325259 ] ] ] } },
{ "type": "Feature", "properties": { "unit_id": "c-649_r489", "col": -649, "row": 489, "frac_2022": 0.014399999997967847, "frac_2023": 0.75166900663373482, "perm_water": 0, "x_3310": -162125.0, "y_3310": -122375.0, "county_geoid": "06087", "county": "Santa Cruz", "lon": -121.822028, "lat": 36.901482 }, "geometry": { "type": "Polygon", "coordinates": [ [ [ -121.820596564708623, 36.900379382333938 ], [ -121.820650511361876, 36.902628162841367 ], [ -121.823459464918031, 36.902584939897423 ], [ -121.823405435075315, 36.900336160641864 ], [ -121.820596564708623, 36.900379382333938 ] ] ] } },
{ "type": "Feature", "properties": { "unit_id": "c-648_r489", "col": -648, "row": 489, "frac_2022": 0.081681717688525543, "frac_2023": 0.91339540708907596, "perm_water": 0, "x_3310": -161875.0, "y_3310": -122375.0, "county_geoid": "06087", "county": "Santa Cruz", "lon": -121.819219, "lat": 36.901525 }, "geometry": { "type": "Polygon", "coordinates": [ [ [ -121.817787691145512, 36.900422537401276 ], [ -121.817841554608989, 36.902671319158685 ], [ -121.820650511361876, 36.902628162841367 ], [ -121.820596564708623, 36.900379382333938 ], [ -121.817787691145512, 36.900422537401276 ] ] ] } },
{ "type": "Feature", "properties": { "unit_id": "c-647_r489", "col": -647, "row": 489, "frac_2022": 0.33137318866953641, "frac_2023": 0.67231445667507395, "perm_water": 0, "x_3310": -161625.0, "y_3310": -122375.0, "county_geoid": "06087", "county": "Santa Cruz", "lon": -121.81641, "lat": 36.901568 }, "geometry": { "type": "Polygon", "coordinates": [ [ [ -121.814978814390869, 36.900465625843779 ], [ -121.815032594664316, 36.902714408849249 ], [ -121.817841554608989, 36.902671319158685 ], [ -121.817787691145512, 36.900422537401276 ], [ -121.814978814390869, 36.900465625843779 ] ] ] } },
{ "type": "Feature", "properties": { "unit_id": "c-655_r490", "col": -655, "row": 490, "frac_2022": 0.60470791910420729, "frac_2023": 0.65020570030659575, "perm_water": 0, "x_3310": -163625.0, "y_3310": -122625.0, "county_geoid": "06087", "county": "Santa Cruz", "lon": -121.838827, "lat": 36.898973 }, "geometry": { "type": "Polygon", "coordinates": [ [ [ -121.837395296229928, 36.897870278330309 ], [ -121.837449738789743, 36.900119052814915 ], [ -121.840258589874352, 36.900075431376948 ], [ -121.840204064131711, 36.897826658155687 ], [ -121.837395296229928, 36.897870278330309 ] ] ] } },
{ "type": "Feature", "properties": { "unit_id": "c-654_r490", "col": -654, "row": 490, "frac_2022": 0.75306321340381344, "frac_2023": 0.85797999091093535, "perm_water": 0, "x_3310": -163375.0, "y_3310": -122625.0, "county_geoid": "06087", "county": "Santa Cruz", "lon": -121.836018, "lat": 36.899016 }, "geometry": { "type": "Polygon", "coordinates": [ [ [ -121.834586525102424, 36.897913831882846 ], [ -121.834640884479128, 36.90016260762885 ], [ -121.837449738789743, 36.900119052814915 ], [ -121.837395296229928, 36.897870278330309 ], [ -121.834586525102424, 36.897913831882846 ] ] ] } },
{ "type": "Feature", "properties": { "unit_id": "c-653_r490", "col": -653, "row": 490, "frac_2022": 0.55241281057480196, "frac_2023": 0.6620827981256262, "perm_water": 0, "x_3310": -163125.0, "y_3310": -122625.0, "county_geoid": "06087", "county": "Santa Cruz", "lon": -121.833209, "lat": 36.89906 }, "geometry": { "type": "Polygon", "coordinates": [ [ [ -121.831777750754171, 36.897957318813141 ], [ -121.831832026947467, 36.900206095818611 ], [ -121.834640884479128, 36.90016260762885 ], [ -121.834586525102424, 36.897913831882846 ], [ -121.831777750754171, 36.897957318813141 ] ] ] } },
{ "type": "Feature", "properties": { "unit_id": "c-648_r490", "col": -648, "row": 490, "frac_2022": 0.75666924327175966, "frac_2023": 0.86891255848611071, "perm_water": 0, "x_3310": -161875.0, "y_3310": -122625.0, "county_geoid": "06087", "county": "Santa Cruz", "lon": -121.819165, "lat": 36.899277 }, "geometry": { "type": "Polygon", "coordinates": [ [ [ -121.817733830873522, 36.898173754127278 ], [ -121.817787691145512, 36.900422537401276 ], [ -121.820596564708623, 36.900379382333938 ], [ -121.820542621251803, 36.898130600309806 ], [ -121.817733830873522, 36.898173754127278 ] ] ] } },
{ "type": "Feature", "properties": { "unit_id": "c-647_r490", "col": -647, "row": 490, "frac_2022": 0.5161384009818436, "frac_2023": 0.63988738568009895, "perm_water": 0, "x_3310": -161625.0, "y_3310": -122625.0, "county_geoid": "06087", "county": "Santa Cruz", "lon": -121.816356, "lat": 36.89932 }, "geometry": { "type": "Polygon", "coordinates": [ [ [ -121.814925037304022, 36.89821684132184 ], [ -121.814978814390869, 36.900465625843779 ], [ -121.817787691145512, 36.900422537401276 ], [ -121.817733830873522, 36.898173754127278 ], [ -121.814925037304022, 36.89821684132184 ] ] ] } },
{ "type": "Feature", "properties": { "unit_id": "c-645_r490", "col": -645, "row": 490, "frac_2022": 0.31768659575197566, "frac_2023": 0.62873740731972538, "perm_water": 0, "x_3310": -161125.0, "y_3310": -122625.0, "county_geoid": "06087", "county": "Santa Cruz", "lon": -121.810739, "lat": 36.899406 }, "geometry": { "type": "Polygon", "coordinates": [ [ [ -121.809307440611008, 36.898302815841902 ], [ -121.809361051326803, 36.900551602853838 ], [ -121.81216993444967, 36.900508647661297 ], [ -121.812116240548207, 36.898259861893429 ], [ -121.809307440611008, 36.898302815841902 ] ] ] } },
{ "type": "Feature", "properties": { "unit_id": "c-633_r495", "col": -633, "row": 495, "frac_2022": 0.028800000398861814, "frac_2023": 0.88196621851384005, "perm_water": 0, "x_3310": -158125.0, "y_3310": -123875.0, "county_geoid": "06087", "county": "Santa Cruz", "lon": -121.776769, "lat": 36.888672 }, "geometry": { "type": "Polygon", "coordinates": [ [ [ -121.775338579436252, 36.88756903479316 ], [ -121.775391176317967, 36.88981784420654 ], [ -121.778199681340595, 36.889775694626465 ], [ -121.778147001294471, 36.887526886433314 ], [ -121.775338579436252, 36.88756903479316 ] ] ] } },
{ "type": "Feature", "properties": { "unit_id": "c-646_r496", "col": -646, "row": 496, "frac_2022": 0.27324343599789697, "frac_2023": 0.72263526108658638, "perm_water": 0, "x_3310": -161375.0, "y_3310": -124125.0, "county_geoid": "06087", "county": "Santa Cruz", "lon": -121.813225, "lat": 36.88587 }, "geometry": { "type": "Polygon", "coordinates": [ [ [ -121.811794143938471, 36.884767115255826 ], [ -121.811847818755922, 36.887015910192112 ], [ -121.8146561996586, 36.886972895848395 ], [ -121.814602441685324, 36.884724102157307 ], [ -121.811794143938471, 36.884767115255826 ] ] ] } },
{ "type": "Feature", "properties": { "unit_id": "c-650_r497", "col": -650, "row": 497, "frac_2022": 0.14806770951724088, "frac_2023": 0.60875373252115339, "perm_water": 0, "x_3310": -162375.0, "y_3310": -124375.0, "county_geoid": "06087", "county": "Santa Cruz", "lon": -121.824404, "lat": 36.883449 }, "geometry": { "type": "Polygon", "coordinates": [ [ [ -121.822973311558698, 36.882345871708907 ], [ -121.823027315798484, 36.884594663193369 ], [ -121.825835600777367, 36.884551383649715 ], [ -121.825781513387767, 36.88230259341794 ], [ -121.822973311558698, 36.882345871708907 ] ] ] } },
{ "type": "Feature", "properties": { "unit_id": "c-650_r498", "col": -650, "row": 498, "frac_2022": 0.65578729093506749, "frac_2023": 0.7942708198449101, "perm_water": 0, "x_3310": -162375.0, "y_3310": -124625.0, "county_geoid": "06087", "county": "Santa Cruz", "lon": -121.82435, "lat": 36.8812 }, "geometry": { "type": "Polygon", "coordinates": [ [ [ -121.822919310518003, 36.88009707868062 ], [ -121.822973311558698, 36.882345871708907 ], [ -121.825781513387767, 36.88230259341794 ], [ -121.825727429202189, 36.880053801642305 ], [ -121.822919310518003, 36.88009707868062 ] ] ] } },
{ "type": "Feature", "properties": { "unit_id": "c-649_r498", "col": -649, "row": 498, "frac_2022": 0.56226371699038913, "frac_2023": 0.64894361709493964, "perm_water": 0, "x_3310": -162125.0, "y_3310": -124625.0, "county_geoid": "06087", "county": "Santa Cruz", "lon": -121.821542, "lat": 36.881243 }, "geometry": { "type": "Polygon", "coordinates": [ [ [ -121.820111188634996, 36.880140289111736 ], [ -121.820165106530538, 36.882389083390684 ], [ -121.822973311558698, 36.882345871708907 ], [ -121.822919310518003, 36.88009707868062 ], [ -121.820111188634996, 36.880140289111736 ] ] ] } },
{ "type": "Feature", "properties": { "unit_id": "c-649_r499", "col": -649, "row": 499, "frac_2022": 0.52864733032363476, "frac_2023": 0.61115913974133074, "perm_water": 0, "x_3310": -162125.0, "y_3310": -124875.0, "county_geoid": "06087", "county": "Santa Cruz", "lon": -121.821488, "lat": 36.878994 }, "geometry": { "type": "Polygon", "coordinates": [ [ [ -121.820057273933344, 36.87789149328583 ], [ -121.820111188634996, 36.880140289111736 ], [ -121.822919310518003, 36.88009707868062 ], [ -121.822865312676115, 36.877848284105184 ], [ -121.820057273933344, 36.87789149328583 ] ] ] } },
{ "type": "Feature", "properties": { "unit_id": "c-648_r499", "col": -648, "row": 499, "frac_2022": 0.048058172403974503, "frac_2023": 0.66651719649380814, "perm_water": 0, "x_3310": -161875.0, "y_3310": -124875.0, "county_geoid": "06087", "county": "Santa Cruz", "lon": -121.81868, "lat": 36.879037 }, "geometry": { "type": "Polygon", "coordinates": [ [ [ -121.817249231996982, 36.877934635860917 ], [ -121.817303063558114, 36.880183432935482 ], [ -121.820111188634996, 36.880140289111736 ], [ -121.820057273933344, 36.87789149328583 ], [ -121.817249231996982, 36.877934635860917 ] ] ] } },
{ "type": "Feature", "properties": { "unit_id": "c-634_r503", "col": -634, "row": 503, "frac_2022": 0.092081542173295269, "frac_2023": 0.67822179388161496, "perm_water": 0, "x_3310": -158375.0, "y_3310": -125875.0, "county_geoid": "06053", "county": "Monterey", "lon": -121.779156, "lat": 36.87064 }, "geometry": { "type": "Polygon", "coordinates": [ [ [ -121.777725673253912, 36.869536365350612 ], [ -121.777778328340716, 36.871785185916877 ], [ -121.780586165066907, 36.87174297949376 ], [ -121.780533426855328, 36.869494160148548 ], [ -121.777725673253912, 36.869536365350612 ] ] ] } },
{ "type": "Feature", "properties": { "unit_id": "c-630_r507", "col": -630, "row": 507, "frac_2022": 0.45788095606487084, "frac_2023": 0.65404470996634656, "perm_water": 0, "x_3310": -157375.0, "y_3310": -126875.0, "county_geoid": "06053", "county": "Monterey", "lon": -121.767715, "lat": 36.861813 }, "geometry": { "type": "Polygon", "coordinates": [ [ [ -121.766285368357927, 36.86070920279132 ], [ -121.766337678548595, 36.862958034488081 ], [ -121.769145195247091, 36.862916099323719 ], [ -121.769092801950208, 36.860667268839812 ], [ -121.766285368357927, 36.86070920279132 ] ] ] } },
{ "type": "Feature", "properties": { "unit_id": "c-630_r510", "col": -630, "row": 510, "frac_2022": 0.46869903641928085, "frac_2023": 0.72626174165718715, "perm_water": 0, "x_3310": -157375.0, "y_3310": -127625.0, "county_geoid": "06053", "county": "Monterey", "lon": -121.767558, "lat": 36.855066 }, "geometry": { "type": "Polygon", "coordinates": [ [ [ -121.766128456372087, 36.853962698239187 ], [ -121.766180757269936, 36.856211534670223 ], [ -121.768988024664594, 36.856169603144046 ], [ -121.768935640675309, 36.853920767925416 ], [ -121.766128456372087, 36.853962698239187 ] ] ] } },
{ "type": "Feature", "properties": { "unit_id": "c-638_r511", "col": -638, "row": 511, "frac_2022": 0.53411794792135892, "frac_2023": 0.63811899736016042, "perm_water": 0, "x_3310": -159375.0, "y_3310": -127875.0, "county_geoid": "06053", "county": "Monterey", "lon": -121.789963, "lat": 36.85248 }, "geometry": { "type": "Polygon", "coordinates": [ [ [ -121.788532881181794, 36.851376563056732 ], [ -121.788585843667022, 36.853625391320222 ], [ -121.791393003016736, 36.853582928319462 ], [ -121.791339957447192, 36.851334101283655 ], [ -121.788532881181794, 36.851376563056732 ] ] ] } },
{ "type": "Feature", "properties": { "unit_id": "c-633_r511", "col": -633, "row": 511, "frac_2022": 0.014399999999463137, "frac_2023": 0.79018974504879969, "perm_water": 0, "x_3310": -158125.0, "y_3310": -127875.0, "county_geoid": "06053", "county": "Monterey", "lon": -121.775927, "lat": 36.852691 }, "geometry": { "type": "Polygon", "coordinates": [ [ [ -121.774497452911348, 36.851587873166125 ], [ -121.774549999970873, 36.853836707539323 ], [ -121.777357174953394, 36.853794577467141 ], [ -121.777304544808189, 36.85154574431207 ], [ -121.774497452911348, 36.851587873166125 ] ] ] } },
{ "type": "Feature", "properties": { "unit_id": "c-632_r511", "col": -632, "row": 511, "frac_2022": 0.0, "frac_2023": 0.79146291831534832, "perm_water": 0, "x_3310": -157875.0, "y_3310": -127875.0, "county_geoid": "06053", "county": "Monterey", "lon": -121.77312, "lat": 36.852733 }, "geometry": { "type": "Polygon", "coordinates": [ [ [ -121.771690357902983, 36.851629935436108 ], [ -121.771742821876558, 36.85387877102545 ], [ -121.774549999970873, 36.853836707539323 ], [ -121.774497452911348, 36.851587873166125 ], [ -121.771690357902983, 36.851629935436108 ] ] ] } },
{ "type": "Feature", "properties": { "unit_id": "c-630_r511", "col": -630, "row": 511, "frac_2022": 0.37026731680584901, "frac_2023": 0.80644036493752513, "perm_water": 0, "x_3310": -157375.0, "y_3310": -127875.0, "county_geoid": "06053", "county": "Monterey", "lon": -121.767506, "lat": 36.852817 }, "geometry": { "type": "Polygon", "coordinates": [ [ [ -121.766076158571295, 36.851713860223207 ], [ -121.766128456372087, 36.853962698239187 ], [ -121.768935640675309, 36.853920767925416 ], [ -121.768883259788012, 36.851671931121814 ], [ -121.766076158571295, 36.851713860223207 ] ] ] } },
{ "type": "Feature", "properties": { "unit_id": "c-634_r512", "col": -634, "row": 512, "frac_2022": 0.54567021229102475, "frac_2023": 0.79834411116891102, "perm_water": 0, "x_3310": -158375.0, "y_3310": -128125.0, "county_geoid": "06053", "county": "Monterey", "lon": -121.778682, "lat": 36.8504 }, "geometry": { "type": "Polygon", "coordinates": [ [ [ -121.777251917779409, 36.849296909568231 ], [ -121.777304544808189, 36.85154574431207 ], [ -121.780111633588561, 36.851503548873964 ], [ -121.780058923479274, 36.84925471535 ], [ -121.777251917779409, 36.849296909568231 ] ] ] } },
{ "type": "Feature", "properties": { "unit_id": "c-633_r512", "col": -633, "row": 512, "frac_2022": 0.32055504979616328, "frac_2023": 0.69621708782784231, "perm_water": 0, "x_3310": -158125.0, "y_3310": -128125.0, "county_geoid": "06053", "county": "Monterey", "lon": -121.775875, "lat": 36.850442 }, "geometry": { "type": "Polygon", "coordinates": [ [ [ -121.77444490896336, 36.849339037204317 ], [ -121.774497452911348, 36.851587873166125 ], [ -121.777304544808189, 36.85154574431207 ], [ -121.777251917779409, 36.849296909568231 ], [ -121.77444490896336, 36.849339037204317 ] ] ] } },
{ "type": "Feature", "properties": { "unit_id": "c-632_r512", "col": -632, "row": 512, "frac_2022": 0.10608323094604277, "frac_2023": 0.66174101750107162, "perm_water": 0, "x_3310": -157875.0, "y_3310": -128125.0, "county_geoid": "06053", "county": "Monterey", "lon": -121.773068, "lat": 36.850484 }, "geometry": { "type": "Polygon", "coordinates": [ [ [ -121.771637897036058, 36.849381098258235 ], [ -121.771690357902983, 36.851629935436108 ], [ -121.774497452911348, 36.851587873166125 ], [ -121.77444490896336, 36.849339037204317 ], [ -121.771637897036058, 36.849381098258235 ] ] ] } },
{ "type": "Feature", "properties": { "unit_id": "c-630_r512", "col": -630, "row": 512, "frac_2022": 0.2508562044845577, "frac_2023": 0.66898959722084728, "perm_water": 0, "x_3310": -157375.0, "y_3310": -128125.0, "county_geoid": "06053", "county": "Monterey", "lon": -121.767454, "lat": 36.850568 }, "geometry": { "type": "Polygon", "coordinates": [ [ [ -121.766023863867304, 36.849465020619057 ], [ -121.766076158571295, 36.851713860223207 ], [ -121.768883259788012, 36.851671931121814 ], [ -121.768830882002405, 36.849423092729857 ], [ -121.766023863867304, 36.849465020619057 ] ] ] } },
{ "type": "Feature", "properties": { "unit_id": "c-641_r513", "col": -641, "row": 513, "frac_2022": 0.91718690444729511, "frac_2023": 0.91858460219210669, "perm_water": 0, "x_3310": -160125.0, "y_3310": -128375.0, "county_geoid": "06053", "county": "Monterey", "lon": -121.798278, "lat": 36.847854 }, "geometry": { "type": "Polygon", "coordinates": [ [ [ -121.796847686527641, 36.8467513240656 ], [ -121.796900891963517, 36.849000151822942 ], [ -121.7997078757125, 36.848957491533191 ], [ -121.799654587202994, 36.846708665009004 ], [ -121.796847686527641, 36.8467513240656 ] ] ] } },
{ "type": "Feature", "properties": { "unit_id": "c-640_r513", "col": -640, "row": 513, "frac_2022": 0.60804818987711196, "frac_2023": 0.59241940732602072, "perm_water": 0, "x_3310": -159875.0, "y_3310": -128375.0, "county_geoid": "06053", "county": "Monterey", "lon": -121.795471, "lat": 36.847897 }, "geometry": { "type": "Polygon", "coordinates": [ [ [ -121.794040782701984, 36.846793916542794 ], [ -121.794093905063946, 36.849042745531449 ], [ -121.796900891963517, 36.849000151822942 ], [ -121.796847686527641, 36.8467513240656 ], [ -121.794040782701984, 36.846793916542794 ] ] ] } },
{ "type": "Feature", "properties": { "unit_id": "c-634_r513", "col": -634, "row": 513, "frac_2022": 0.26155597864373364, "frac_2023": 0.75196191221648168, "perm_water": 0, "x_3310": -158375.0, "y_3310": -128375.0, "county_geoid": "06053", "county": "Monterey", "lon": -121.778629, "lat": 36.848151 }, "geometry": { "type": "Polygon", "coordinates": [ [ [ -121.777199293866815, 36.847048073232273 ], [ -121.777251917779409, 36.849296909568231 ], [ -121.780058923479274, 36.84925471535 ], [ -121.780006216491103, 36.847005880233809 ], [ -121.777199293866815, 36.847048073232273 ] ] ] } },
{ "type": "Feature", "properties": { "unit_id": "c-633_r513", "col": -633, "row": 513, "frac_2022": 0.52078519193707673, "frac_2023": 0.76157622360010235, "perm_water": 0, "x_3310": -158125.0, "y_3310": -128375.0, "county_geoid": "06053", "county": "Monterey", "lon": -121.775822, "lat": 36.848194 }, "geometry": { "type": "Polygon", "coordinates": [ [ [ -121.774392368126627, 36.847090199650545 ], [ -121.77444490896336, 36.849339037204317 ], [ -121.777251917779409, 36.849296909568231 ], [ -121.777199293866815, 36.847048073232273 ], [ -121.774392368126627, 36.847090199650545 ] ] ] } },
{ "type": "Feature", "properties": { "unit_id": "c-632_r513", "col": -632, "row": 513, "frac_2022": 0.61605744740250845, "frac_2023": 0.81353421843290941, "perm_water": 0, "x_3310": -157875.0, "y_3310": -128375.0, "county_geoid": "06053", "county": "Monterey", "lon": -121.773015, "lat": 36.848236 }, "geometry": { "type": "Polygon", "coordinates": [ [ [ -121.771585439275455, 36.847132259488546 ], [ -121.771637897036058, 36.849381098258235 ], [ -121.77444490896336, 36.849339037204317 ], [ -121.774392368126627, 36.847090199650545 ], [ -121.771585439275455, 36.847132259488546 ] ] ] } },
{ "type": "Feature", "properties": { "unit_id": "c-637_r514", "col": -637, "row": 514, "frac_2022": 0.45656785109309794, "frac_2023": 0.60920694131990372, "perm_water": 0, "x_3310": -159125.0, "y_3310": -128625.0, "county_geoid": "06053", "county": "Monterey", "lon": -121.786997, "lat": 36.845776 }, "geometry": { "type": "Polygon", "coordinates": [ [ [ -121.785567182364446, 36.84467246022998 ], [ -121.785620052372323, 36.846921294496823 ], [ -121.788426965619422, 36.846878901758487 ], [ -121.788374012541709, 36.844630068717045 ], [ -121.785567182364446, 36.84467246022998 ] ] ] } },
{ "type": "Feature", "properties": { "unit_id": "c-636_r514", "col": -636, "row": 514, "frac_2022": 0.4104107053651343, "frac_2023": 0.66797189342322039, "perm_water": 0, "x_3310": -158875.0, "y_3310": -128625.0, "county_geoid": "06053", "county": "Monterey", "lon": -121.78419, "lat": 36.845818 }, "geometry": { "type": "Polygon", "coordinates": [ [ [ -121.782760349056829, 36.84471478516496 ], [ -121.782813135994573, 36.846963620655259 ], [ -121.785620052372323, 36.846921294496823 ], [ -121.785567182364446, 36.84467246022998 ], [ -121.782760349056829, 36.84471478516496 ] ] ] } },
{ "type": "Feature", "properties": { "unit_id": "c-630_r514", "col": -630, "row": 514, "frac_2022": 0.64117765757564882, "frac_2023": 0.78262003022939708, "perm_water": 0, "x_3310": -157375.0, "y_3310": -128625.0, "county_geoid": "06053", "county": "Monterey", "lon": -121.767349, "lat": 36.846071 }, "geometry": { "type": "Polygon", "coordinates": [ [ [ -121.765919283748588, 36.844967336632649 ], [ -121.765971572259829, 36.847216179423306 ], [ -121.768778507318231, 36.847174252746193 ], [ -121.768726135735221, 36.844925411167488 ], [ -121.765919283748588, 36.844967336632649 ] ] ] } },
{ "type": "Feature", "properties": { "unit_id": "c-637_r515", "col": -637, "row": 515, "frac_2022": 0.62603529771215116, "frac_2023": 0.66837100834739926, "perm_water": 0, "x_3310": -159125.0, "y_3310": -128875.0, "county_geoid": "06053", "county": "Monterey", "lon": -121.786944, "lat": 36.843527 }, "geometry": { "type": "Polygon", "coordinates": [ [ [ -121.785514315486964, 36.842423624363882 ], [ -121.785567182364446, 36.84467246022998 ], [ -121.788374012541709, 36.844630068717045 ], [ -121.78832106259928, 36.842381234076157 ], [ -121.785514315486964, 36.842423624363882 ] ] ] } },
{ "type": "Feature", "properties": { "unit_id": "c-635_r516", "col": -635, "row": 516, "frac_2022": 0.31282683201304418, "frac_2023": 0.69189684497514381, "perm_water": 0, "x_3310": -158625.0, "y_3310": -129125.0, "county_geoid": "06053", "county": "Monterey", "lon": -121.781278, "lat": 36.841363 }, "geometry": { "type": "Polygon", "coordinates": [ [ [ -121.77984811425037, 36.840259365297953 ], [ -121.779900811876928, 36.842508205211175 ], [ -121.782707565244536, 36.842465948075535 ], [ -121.782654784557394, 36.84021710938363 ], [ -121.77984811425037, 36.840259365297953 ] ] ] } },
{ "type": "Feature", "properties": { "unit_id": "c-629_r516", "col": -629, "row": 516, "frac_2022": 0.20076101744945207, "frac_2023": 0.64665556588747541, "perm_water": 0, "x_3310": -157125.0, "y_3310": -129125.0, "county_geoid": "06053", "county": "Monterey", "lon": -121.764437, "lat": 36.841615 }, "geometry": { "type": "Polygon", "coordinates": [ [ [ -121.763008027060479, 36.840511502719941 ], [ -121.763060226317862, 36.84276034992039 ], [ -121.765866998333308, 36.842718492243719 ], [ -121.765814716013722, 36.840469646253027 ], [ -121.763008027060479, 36.840511502719941 ] ] ] } },
{ "type": "Feature", "properties": { "unit_id": "c-630_r517", "col": -630, "row": 517, "frac_2022": 0.37235443135806778, "frac_2023": 0.8308941671333776, "perm_water": 0, "x_3310": -157375.0, "y_3310": -129375.0, "county_geoid": "06053", "county": "Monterey", "lon": -121.767192, "lat": 36.839324 }, "geometry": { "type": "Polygon", "coordinates": [ [ [ -121.765762436789544, 36.838220798657325 ], [ -121.765814716013722, 36.840469646253027 ], [ -121.768621401871528, 36.840427723211256 ], [ -121.768569039590318, 36.838178876827094 ], [ -121.765762436789544, 36.838220798657325 ] ] ] } },
{ "type": "Feature", "properties": { "unit_id": "c-629_r517", "col": -629, "row": 517, "frac_2022": 0.49091725813233617, "frac_2023": 0.74711039735542384, "perm_water": 0, "x_3310": -157125.0, "y_3310": -129375.0, "county_geoid": "06053", "county": "Monterey", "lon": -121.764385, "lat": 36.839366 }, "geometry": { "type": "Polygon", "coordinates": [ [ [ -121.762955830893617, 36.838262653914683 ], [ -121.763008027060479, 36.840511502719941 ], [ -121.765814716013722, 36.840469646253027 ], [ -121.765762436789544, 36.838220798657325 ], [ -121.762955830893617, 36.838262653914683 ] ] ] } },
{ "type": "Feature", "properties": { "unit_id": "c-625_r538", "col": -625, "row": 538, "frac_2022": 0.014399999999944544, "frac_2023": 0.71901424176026829, "perm_water": 0, "x_3310": -156125.0, "y_3310": -134625.0, "county_geoid": "06053", "county": "Monterey", "lon": -121.752069, "lat": 36.792307 }, "geometry": { "type": "Polygon", "coordinates": [ [ [ -121.75064094270536, 36.791203106531825 ], [ -121.750692742215534, 36.793451994625002 ], [ -121.753497700306227, 36.793410429670629 ], [ -121.753445817840756, 36.791161542776557 ], [ -121.75064094270536, 36.791203106531825 ] ] ] } },
{ "type": "Feature", "properties": { "unit_id": "c-624_r538", "col": -624, "row": 538, "frac_2022": 0.0038926852541190959, "frac_2023": 0.7555553342254514, "perm_water": 0, "x_3310": -155875.0, "y_3310": -134625.0, "county_geoid": "06053", "county": "Monterey", "lon": -121.749264, "lat": 36.792348 }, "geometry": { "type": "Polygon", "coordinates": [ [ [ -121.747836064505108, 36.791244603753938 ], [ -121.747887781059731, 36.793493493044288 ], [ -121.750692742215534, 36.793451994625002 ], [ -121.75064094270536, 36.791203106531825 ], [ -121.747836064505108, 36.791244603753938 ] ] ] } },
{ "type": "Feature", "properties": { "unit_id": "c-623_r538", "col": -623, "row": 538, "frac_2022": 0.0143999999968814, "frac_2023": 0.65279545790871363, "perm_water": 0, "x_3310": -155625.0, "y_3310": -134625.0, "county_geoid": "06053", "county": "Monterey", "lon": -121.746459, "lat": 36.79239 }, "geometry": { "type": "Polygon", "coordinates": [ [ [ -121.745031183244919, 36.791286034442805 ], [ -121.745082816843691, 36.79353492492843 ], [ -121.747887781059731, 36.793493493044288 ], [ -121.747836064505108, 36.791244603753938 ], [ -121.745031183244919, 36.791286034442805 ] ] ] } },
{ "type": "Feature", "properties": { "unit_id": "c-624_r539", "col": -624, "row": 539, "frac_2022": 0.036161349377733104, "frac_2023": 0.61696140211270167, "perm_water": 0, "x_3310": -155875.0, "y_3310": -134875.0, "county_geoid": "06053", "county": "Monterey", "lon": -121.749213, "lat": 36.790099 }, "geometry": { "type": "Polygon", "coordinates": [ [ [ -121.747784351010438, 36.788995712785329 ], [ -121.747836064505108, 36.791244603753938 ], [ -121.75064094270536, 36.791203106531825 ], [ -121.750589146260012, 36.788954216760267 ], [ -121.747784351010438, 36.788995712785329 ] ] ] } },
{ "type": "Feature", "properties": { "unit_id": "c-618_r540", "col": -618, "row": 540, "frac_2022": 0.33276120419044142, "frac_2023": 0.70865788997060208, "perm_water": 0, "x_3310": -154375.0, "y_3310": -135125.0, "county_geoid": "06053", "county": "Monterey", "lon": -121.732332, "lat": 36.788098 }, "geometry": { "type": "Polygon", "coordinates": [ [ [ -121.730904302676748, 36.786994391982368 ], [ -121.730955515431503, 36.78924329177385 ], [ -121.733760328965559, 36.789202194938383 ], [ -121.733709033263409, 36.786953296332335 ], [ -121.730904302676748, 36.786994391982368 ] ] ] } },
{ "type": "Feature", "properties": { "unit_id": "c-618_r550", "col": -618, "row": 550, "frac_2022": 0.18050237519746376, "frac_2023": 0.80371521205528085, "perm_water": 0, "x_3310": -154375.0, "y_3310": -137625.0, "county_geoid": "06053", "county": "Monterey", "lon": -121.73182, "lat": 36.765609 }, "geometry": { "type": "Polygon", "coordinates": [ [ [ -121.730392341733534, 36.764505300886199 ], [ -121.730443524200609, 36.766754217670027 ], [ -121.733247508481483, 36.766713132683059 ], [ -121.733196243116026, 36.764464217083237 ], [ -121.730392341733534, 36.764505300886199 ] ] ] } },
{ "type": "Feature", "properties": { "unit_id": "c-615_r551", "col": -615, "row": 551, "frac_2022": 0.35392893416224769, "frac_2023": 0.60102847255129643, "perm_water": 0, "x_3310": -153625.0, "y_3310": -137875.0, "county_geoid": "06053", "county": "Monterey", "lon": -121.723357, "lat": 36.763483 }, "geometry": { "type": "Polygon", "coordinates": [ [ [ -121.721929688684057, 36.76237923118704 ], [ -121.721980619441879, 36.764628153229111 ], [ -121.724784529891551, 36.764587268959218 ], [ -121.724733516239496, 36.76233834809539 ], [ -121.721929688684057, 36.76237923118704 ] ] ] } },
{ "type": "Feature", "properties": { "unit_id": "c-579_r551", "col": -579, "row": 551, "frac_2022": 0.0, "frac_2023": 0.77670577131056118, "perm_water": 0, "x_3310": -144625.0, "y_3310": -137875.0, "county_geoid": "06053", "county": "Monterey", "lon": -121.622416, "lat": 36.764912 }, "geometry": { "type": "Polygon", "coordinates": [ [ [ -121.620989928554749, 36.763806726496817 ], [ -121.621037874944463, 36.766055689680528 ], [ -121.623841890760104, 36.766017199878732 ], [ -121.623793861466794, 36.763768237804292 ], [ -121.620989928554749, 36.763806726496817 ] ] ] } },
{ "type": "Feature", "properties": { "unit_id": "c-634_r552", "col": -634, "row": 552, "frac_2022": 0.25839201407418344, "frac_2023": 0.63082403765156991, "perm_water": 0, "x_3310": -158375.0, "y_3310": -138125.0, "county_geoid": "06053", "county": "Monterey", "lon": -121.776578, "lat": 36.760446 }, "geometry": { "type": "Polygon", "coordinates": [ [ [ -121.775149388947199, 36.759342178424248 ], [ -121.775201891544427, 36.761591079475544 ], [ -121.778005660934809, 36.761548932727273 ], [ -121.777953075453397, 36.759300032890465 ], [ -121.775149388947199, 36.759342178424248 ] ] ] } },
{ "type": "Feature", "properties": { "unit_id": "c-633_r552", "col": -633, "row": 552, "frac_2022": 0.15542294174053217, "frac_2023": 0.78183918008072129, "perm_water": 0, "x_3310": -158125.0, "y_3310": -138125.0, "county_geoid": "06053", "county": "Monterey", "lon": -121.773774, "lat": 36.760488 }, "geometry": { "type": "Polygon", "coordinates": [ [ [ -121.772345699335872, 36.759384257452659 ], [ -121.772398119048589, 36.76163315971651 ], [ -121.775201891544427, 36.761591079475544 ], [ -121.775149388947199, 36.759342178424248 ], [ -121.772345699335872, 36.759384257452659 ] ] ] } },
{ "type": "Feature", "properties": { "unit_id": "c-596_r553", "col": -596, "row": 553, "frac_2022": 0.0, "frac_2023": 0.6876857592902258, "perm_water": 0, "x_3310": -148875.0, "y_3310": -138375.0, "county_geoid": "06053", "county": "Monterey", "lon": -121.669984, "lat": 36.75975 }, "geometry": { "type": "Polygon", "coordinates": [ [ [ -121.668557695700144, 36.758645479756659 ], [ -121.668607045578469, 36.760894427261427 ], [ -121.67141084663578, 36.760854809005764 ], [ -121.67136141386797, 36.758605862642646 ], [ -121.668557695700144, 36.758645479756659 ] ] ] } },
{ "type": "Feature", "properties": { "unit_id": "c-627_r554", "col": -627, "row": 554, "frac_2022": 0.45994639605703441, "frac_2023": 0.63235348957680027, "perm_water": 0, "x_3310": -156625.0, "y_3310": -138625.0, "county_geoid": "06053", "county": "Monterey", "lon": -121.756847, "lat": 36.756241 }, "geometry": { "type": "Polygon", "coordinates": [ [ [ -121.755419661146448, 36.755137510826117 ], [ -121.755471577405132, 36.757386423779714 ], [ -121.758275202663171, 36.757344744986696 ], [ -121.758223203528146, 36.755095833233938 ], [ -121.755419661146448, 36.755137510826117 ] ] ] } },
{ "type": "Feature", "properties": { "unit_id": "c-597_r554", "col": -597, "row": 554, "frac_2022": 3.1036348824292692e-05, "frac_2023": 0.65669605577947654, "perm_water": 0, "x_3310": -149125.0, "y_3310": -138625.0, "county_geoid": "06053", "county": "Monterey", "lon": -121.672739, "lat": 36.757462 }, "geometry": { "type": "Polygon", "coordinates": [ [ [ -121.671311984023802, 36.756356914554473 ], [ -121.67136141386797, 36.758605862642646 ], [ -121.674165129112225, 36.758566179021358 ], [ -121.674115616383716, 36.756317232076533 ], [ -121.671311984023802, 36.756356914554473 ] ] ] } },
{ "type": "Feature", "properties": { "unit_id": "c-597_r555", "col": -597, "row": 555, "frac_2022": 0.0, "frac_2023": 0.61539143569434707, "perm_water": 0, "x_3310": -149125.0, "y_3310": -138875.0, "county_geoid": "06053", "county": "Monterey", "lon": -121.672689, "lat": 36.755213 }, "geometry": { "type": "Polygon", "coordinates": [ [ [ -121.671262557102949, 36.754107964737848 ], [ -121.671311984023802, 36.756356914554473 ], [ -121.674115616383716, 36.756317232076533 ], [ -121.674066106583453, 36.754068283403228 ], [ -121.671262557102949, 36.754107964737848 ] ] ] } },
{ "type": "Feature", "properties": { "unit_id": "c-596_r555", "col": -596, "row": 555, "frac_2022": 0.0, "frac_2023": 0.73707335450589517, "perm_water": 0, "x_3310": -148875.0, "y_3310": -138875.0, "county_geoid": "06053", "county": "Monterey", "lon": -121.669885, "lat": 36.755252 }, "geometry": { "type": "Polygon", "coordinates": [ [ [ -121.668459004699358, 36.754147579569057 ], [ -121.668508348740531, 36.756396530527013 ], [ -121.671311984023802, 36.756356914554473 ], [ -121.671262557102949, 36.754107964737848 ], [ -121.668459004699358, 36.754147579569057 ] ] ] } },
{ "type": "Feature", "properties": { "unit_id": "c-596_r556", "col": -596, "row": 556, "frac_2022": 0.0, "frac_2023": 0.68273011573437659, "perm_water": 0, "x_3310": -148875.0, "y_3310": -139125.0, "county_geoid": "06053", "county": "Monterey", "lon": -121.669836, "lat": 36.753003 }, "geometry": { "type": "Polygon", "coordinates": [ [ [ -121.668409663576355, 36.751898626879481 ], [ -121.668459004699358, 36.754147579569057 ], [ -121.671262557102949, 36.754107964737848 ], [ -121.671213133105198, 36.751859013189545 ], [ -121.668409663576355, 36.751898626879481 ] ] ] } },
{ "type": "Feature", "properties": { "unit_id": "c-595_r556", "col": -595, "row": 556, "frac_2022": 0.0, "frac_2023": 0.6295599739305473, "perm_water": 0, "x_3310": -148625.0, "y_3310": -139125.0, "county_geoid": "06053", "county": "Monterey", "lon": -121.667033, "lat": 36.753043 }, "geometry": { "type": "Polygon", "coordinates": [ [ [ -121.665606191129598, 36.751938174067703 ], [ -121.665655449377581, 36.754187127896635 ], [ -121.668459004699358, 36.754147579569057 ], [ -121.668409663576355, 36.751898626879481 ], [ -121.665606191129598, 36.751938174067703 ] ] ] } },
{ "type": "Feature", "properties": { "unit_id": "c-598_r557", "col": -598, "row": 557, "frac_2022": 0.0, "frac_2023": 0.61932495669258103, "perm_water": 0, "x_3310": -149375.0, "y_3310": -139375.0, "county_geoid": "06053", "county": "Monterey", "lon": -121.675394, "lat": 36.750675 }, "geometry": { "type": "Polygon", "coordinates": [ [ [ -121.673967095766656, 36.749570380857548 ], [ -121.67401659971118, 36.751819332997982 ], [ -121.676820063389457, 36.75177958630502 ], [ -121.67677047657557, 36.749530635309462 ], [ -121.673967095766656, 36.749570380857548 ] ] ] } },
{ "type": "Feature", "properties": { "unit_id": "c-592_r557", "col": -592, "row": 557, "frac_2022": 0.014399999998281008, "frac_2023": 0.71003946987758459, "perm_water": 0, "x_3310": -147875.0, "y_3310": -139375.0, "county_geoid": "06053", "county": "Monterey", "lon": -121.658573, "lat": 36.750912 }, "geometry": { "type": "Polygon", "coordinates": [ [ [ -121.657146749607762, 36.749807457651556 ], [ -121.657195756330736, 36.752056416621443 ], [ -121.659999237501907, 36.752017068938834 ], [ -121.659950147908006, 36.749768111102362 ], [ -121.657146749607762, 36.749807457651556 ] ] ] } },
{ "type": "Feature", "properties": { "unit_id": "c-577_r557", "col": -577, "row": 557, "frac_2022": 0.0, "frac_2023": 0.61484012435240543, "perm_water": 0, "x_3310": -144125.0, "y_3310": -139375.0, "county_geoid": "06053", "county": "Monterey", "lon": -121.616521, "lat": 36.751495 }, "geometry": { "type": "Polygon", "coordinates": [ [ [ -121.615095430077091, 36.750389675812833 ], [ -121.615143193705876, 36.752638651554925 ], [ -121.617946717837796, 36.752600301413985 ], [ -121.617898871334276, 36.750351326776666 ], [ -121.615095430077091, 36.750389675812833 ] ] ] } },
{ "type": "Feature", "properties": { "unit_id": "c-598_r558", "col": -598, "row": 558, "frac_2022": 0.014399999999954604, "frac_2023": 0.79629970462190691, "perm_water": 0, "x_3310": -149375.0, "y_3310": -139625.0, "county_geoid": "06053", "county": "Monterey", "lon": -121.675344, "lat": 36.748426 }, "geometry": { "type": "Polygon", "coordinates": [ [ [ -121.673917594749582, 36.747321426978473 ], [ -121.673967095766656, 36.749570380857548 ], [ -121.67677047657557, 36.749530635309462 ], [ -121.676720892694036, 36.74728168257522 ], [ -121.673917594749582, 36.747321426978473 ] ] ] } },
{ "type": "Feature", "properties": { "unit_id": "c-597_r558", "col": -597, "row": 558, "frac_2022": 0.0, "frac_2023": 0.76983018052553043, "perm_water": 0, "x_3310": -149125.0, "y_3310": -139625.0, "county_geoid": "06053", "county": "Monterey", "lon": -121.672541, "lat": 36.748466 }, "geometry": { "type": "Polygon", "coordinates": [ [ [ -121.671114293877906, 36.747361104884092 ], [ -121.671163712030278, 36.749610059906068 ], [ -121.673967095766656, 36.749570380857548 ], [ -121.673917594749582, 36.747321426978473 ], [ -121.671114293877906, 36.747361104884092 ] ] ] } },
{ "type": "Feature", "properties": { "unit_id": "c-594_r558", "col": -594, "row": 558, "frac_2022": 0.0, "frac_2023": 0.65466593245817573, "perm_water": 0, "x_3310": -148375.0, "y_3310": -139625.0, "county_geoid": "06053", "county": "Monterey", "lon": -121.664131, "lat": 36.748584 }, "geometry": { "type": "Polygon", "coordinates": [ [ [ -121.662704373748625, 36.747479739614008 ], [ -121.662753543305286, 36.749728698053147 ], [ -121.665556935794683, 36.749689218503931 ], [ -121.665507683372539, 36.747440261201945 ], [ -121.662704373748625, 36.747479739614008 ] ] ] } },
{ "type": "Feature", "properties": { "unit_id": "c-599_r559", "col": -599, "row": 559, "frac_2022": 0.0, "frac_2023": 0.68163808620338395, "perm_water": 0, "x_3310": -149625.0, "y_3310": -139875.0, "county_geoid": "06053", "county": "Monterey", "lon": -121.678098, "lat": 36.746137 }, "geometry": { "type": "Polygon", "coordinates": [ [ [ -121.676671311744613, 36.745032728098884 ], [ -121.676720892694036, 36.74728168257522 ], [ -121.679524187706406, 36.747241871674397 ], [ -121.679474523897682, 36.744992918344693 ], [ -121.676671311744613, 36.745032728098884 ] ] ] } },
{ "type": "Feature", "properties": { "unit_id": "c-597_r559", "col": -597, "row": 559, "frac_2022": 0.0, "frac_2023": 0.7360462888417626, "perm_water": 0, "x_3310": -149125.0, "y_3310": -139875.0, "county_geoid": "06053", "county": "Monterey", "lon": -121.672491, "lat": 36.746217 }, "geometry": { "type": "Polygon", "coordinates": [ [ [ -121.67106487864784, 36.745112148120263 ], [ -121.671114293877906, 36.747361104884092 ], [ -121.673917594749582, 36.747321426978473 ], [ -121.673868096659689, 36.745072471357453 ], [ -121.67106487864784, 36.745112148120263 ] ] ] } },
{ "type": "Feature", "properties": { "unit_id": "c-594_r559", "col": -594, "row": 559, "frac_2022": 0.0, "frac_2023": 0.66738516265564618, "perm_water": 0, "x_3310": -148375.0, "y_3310": -139875.0, "county_geoid": "06053", "county": "Monterey", "lon": -121.664081, "lat": 36.746336 }, "geometry": { "type": "Polygon", "coordinates": [ [ [ -121.66265520709959, 36.745230779433378 ], [ -121.662704373748625, 36.747479739614008 ], [ -121.665507683372539, 36.747440261201945 ], [ -121.665458433862895, 36.745191302158311 ], [ -121.66265520709959, 36.745230779433378 ] ] ] } },
{ "type": "Feature", "properties": { "unit_id": "c-597_r560", "col": -597, "row": 560, "frac_2022": 0.014400000000393848, "frac_2023": 0.65861468726253669, "perm_water": 0, "x_3310": -149125.0, "y_3310": -140125.0, "county_geoid": "06053", "county": "Monterey", "lon": -121.672442, "lat": 36.743968 }, "geometry": { "type": "Polygon", "coordinates": [ [ [ -121.671015466339853, 36.742863189611313 ], [ -121.67106487864784, 36.745112148120263 ], [ -121.673868096659689, 36.745072471357453 ], [ -121.673818601496777, 36.742823513991127 ], [ -121.671015466339853, 36.742863189611313 ] ] ] } },
{ "type": "Feature", "properties": { "unit_id": "c-589_r560", "col": -589, "row": 560, "frac_2022": 0.0, "frac_2023": 0.62710087579854001, "perm_water": 0, "x_3310": -147125.0, "y_3310": -140125.0, "county_geoid": "06053", "county": "Monterey", "lon": -121.650016, "lat": 36.744283 }, "geometry": { "type": "Polygon", "coordinates": [ [ [ -121.648590280311225, 36.743178200783085 ], [ -121.64863902977055, 36.745427168364287 ], [ -121.651442271021693, 36.745388023570989 ], [ -121.651393438705384, 36.743139057117126 ], [ -121.648590280311225, 36.743178200783085 ] ] ] } },
{ "type": "Feature", "properties": { "unit_id": "c-598_r561", "col": -598, "row": 561, "frac_2022": 0.016810411723352056, "frac_2023": 0.71172002857662309, "perm_water": 0, "x_3310": -149375.0, "y_3310": -140375.0, "county_geoid": "06053", "county": "Monterey", "lon": -121.675195, "lat": 36.741679 }, "geometry": { "type": "Polygon", "coordinates": [ [ [ -121.673769109260533, 36.740574554876126 ], [ -121.673818601496777, 36.742823513991127 ], [ -121.676621733727032, 36.742783771877093 ], [ -121.676572158641022, 36.740534813906514 ], [ -121.673769109260533, 36.740574554876126 ] ] ] } },
{ "type": "Feature", "properties": { "unit_id": "c-587_r562", "col": -587, "row": 562, "frac_2022": 0.0, "frac_2023": 0.64379788828963225, "perm_water": 0, "x_3310": -146625.0, "y_3310": -140625.0, "county_geoid": "06053", "county": "Monterey", "lon": -121.644313, "lat": 36.739863 }, "geometry": { "type": "Polygon", "coordinates": [ [ [ -121.64288679600898, 36.738758343725202 ], [ -121.642935374008161, 36.741007317053239 ], [ -121.645738455310081, 36.740968307500211 ], [ -121.645689794463195, 36.73871933529545 ], [ -121.64288679600898, 36.738758343725202 ] ] ] } },
{ "type": "Feature", "properties": { "unit_id": "c-578_r562", "col": -578, "row": 562, "frac_2022": 0.0, "frac_2023": 0.70515243782041748, "perm_water": 0, "x_3310": -144375.0, "y_3310": -140625.0, "county_geoid": "06053", "county": "Monterey", "lon": -121.619085, "lat": 36.740212 }, "geometry": { "type": "Polygon", "coordinates": [ [ [ -121.617659681254324, 36.739106427481403 ], [ -121.6177075136128, 36.74135541083276 ], [ -121.620510620591588, 36.741316999720468 ], [ -121.620462705383147, 36.739068017475162 ], [ -121.617659681254324, 36.739106427481403 ] ] ] } },
{ "type": "Feature", "properties": { "unit_id": "c-632_r563", "col": -632, "row": 563, "frac_2022": 0.60114954768441942, "frac_2023": 0.6155495476874665, "perm_water": 0, "x_3310": -157875.0, "y_3310": -140875.0, "county_geoid": "06053", "county": "Monterey", "lon": -121.770394, "lat": 36.735792 }, "geometry": { "type": "Polygon", "coordinates": [ [ [ -121.768966505748281, 36.734688217084376 ], [ -121.769018808542668, 36.736937139732298 ], [ -121.771821672676026, 36.736895139308494 ], [ -121.771769287050759, 36.734646217869717 ], [ -121.768966505748281, 36.734688217084376 ] ] ] } },
{ "type": "Feature", "properties": { "unit_id": "c-590_r563", "col": -590, "row": 563, "frac_2022": 0.0, "frac_2023": 0.75969743233757758, "perm_water": 0, "x_3310": -147375.0, "y_3310": -140875.0, "county_geoid": "06053", "county": "Monterey", "lon": -121.652673, "lat": 36.737497 }, "geometry": { "type": "Polygon", "coordinates": [ [ [ -121.651246959080524, 36.736392147256041 ], [ -121.651295782735062, 36.738641118963002 ], [ -121.654098772542923, 36.738601911060535 ], [ -121.654049866046364, 36.736352940482462 ], [ -121.651246959080524, 36.736392147256041 ] ] ] } },
{ "type": "Feature", "properties": { "unit_id": "c-583_r563", "col": -583, "row": 563, "frac_2022": 0.0, "frac_2023": 0.61494690736527047, "perm_water": 0, "x_3310": -145625.0, "y_3310": -140875.0, "county_geoid": "06053", "county": "Monterey", "lon": -121.633052, "lat": 36.73777 }, "geometry": { "type": "Polygon", "coordinates": [ [ [ -121.63162652976483, 36.736664732976607 ], [ -121.631674773517943, 36.738913712532167 ], [ -121.634477783432018, 36.738874970067393 ], [ -121.634429456835107, 36.73662599162742 ], [ -121.63162652976483, 36.736664732976607 ] ] ] } },
{ "type": "Feature", "properties": { "unit_id": "c-582_r563", "col": -582, "row": 563, "frac_2022": 0.0, "frac_2023": 0.66523900656045887, "perm_water": 0, "x_3310": -145375.0, "y_3310": -140875.0, "county_geoid": "06053", "county": "Monterey", "lon": -121.630249, "lat": 36.737809 }, "geometry": { "type": "Polygon", "coordinates": [ [ [ -121.62882359984205, 36.736703407836274 ], [ -121.62887176075111, 36.738952388505425 ], [ -121.631674773517943, 36.738913712532167 ], [ -121.63162652976483, 36.736664732976607 ], [ -121.62882359984205, 36.736703407836274 ] ] ] } },
{ "type": "Feature", "properties": { "unit_id": "c-581_r563", "col": -581, "row": 563, "frac_2022": 0.0, "frac_2023": 0.75060560003789201, "perm_water": 0, "x_3310": -145125.0, "y_3310": -140875.0, "county_geoid": "06053", "county": "Monterey", "lon": -121.627446, "lat": 36.737847 }, "geometry": { "type": "Polygon", "coordinates": [ [ [ -121.626020667071714, 36.73674201620625 ], [ -121.626068745136422, 36.738990997987031 ], [ -121.62887176075111, 36.738952388505425 ], [ -121.62882359984205, 36.736703407836274 ], [ -121.626020667071714, 36.73674201620625 ] ] ] } },
{ "type": "Feature", "properties": { "unit_id": "c-608_r564", "col": -608, "row": 564, "frac_2022": 0.73051938831587082, "frac_2023": 0.77582698232983027, "perm_water": 0, "x_3310": -151875.0, "y_3310": -141125.0, "county_geoid": "06053", "county": "Monterey", "lon": -121.703075, "lat": 36.734532 }, "geometry": { "type": "Polygon", "coordinates": [ [ [ -121.701648526253067, 36.733427299773709 ], [ -121.701698838049865, 36.735676252628323 ], [ -121.704501692217192, 36.735635849071905 ], [ -121.704451297587937, 36.733386897380463 ], [ -121.701648526253067, 36.733427299773709 ] ] ] } },
{ "type": "Feature", "properties": { "unit_id": "c-595_r564", "col": -595, "row": 564, "frac_2022": 0.0, "frac_2023": 0.80610886337029231, "perm_water": 0, "x_3310": -148625.0, "y_3310": -141125.0, "county_geoid": "06053", "county": "Monterey", "lon": -121.666638, "lat": 36.735051 }, "geometry": { "type": "Polygon", "coordinates": [ [ [ -121.665212229993401, 36.73394648069938 ], [ -121.665261464944322, 36.736195448501121 ], [ -121.668064357402997, 36.736155909284619 ], [ -121.668015039616208, 36.733906942621083 ], [ -121.665212229993401, 36.73394648069938 ] ] ] } },
{ "type": "Feature", "properties": { "unit_id": "c-594_r564", "col": -594, "row": 564, "frac_2022": 0.0, "frac_2023": 0.77029972721356421, "perm_water": 0, "x_3310": -148375.0, "y_3310": -141125.0, "county_geoid": "06053", "county": "Monterey", "lon": -121.663835, "lat": 36.735091 }, "geometry": { "type": "Polygon", "coordinates": [ [ [ -121.6624094174596, 36.733985952291121 ], [ -121.66245856957444, 36.736234921229318 ], [ -121.665261464944322, 36.736195448501121 ], [ -121.665212229993401, 36.73394648069938 ], [ -121.6624094174596, 36.733985952291121 ] ] ] } },
{ "type": "Feature", "properties": { "unit_id": "c-590_r564", "col": -590, "row": 564, "frac_2022": 0.0, "frac_2023": 0.7320820321256849, "perm_water": 0, "x_3310": -147375.0, "y_3310": -141125.0, "county_geoid": "06053", "county": "Monterey", "lon": -121.652624, "lat": 36.735248 }, "geometry": { "type": "Polygon", "coordinates": [ [ [ -121.651198138312722, 36.734143173791388 ], [ -121.651246959080524, 36.736392147256041 ], [ -121.654049866046364, 36.736352940482462 ], [ -121.65400096244143, 36.734103968146563 ], [ -121.651198138312722, 36.734143173791388 ] ] ] } },
{ "type": "Feature", "properties": { "unit_id": "c-581_r564", "col": -581, "row": 564, "frac_2022": 0.0, "frac_2023": 0.87617023042448694, "perm_water": 0, "x_3310": -145125.0, "y_3310": -141125.0, "county_geoid": "06053", "county": "Monterey", "lon": -121.627398, "lat": 36.735598 }, "geometry": { "type": "Polygon", "coordinates": [ [ [ -121.625972591849688, 36.734493032668915 ], [ -121.626020667071714, 36.73674201620625 ], [ -121.62882359984205, 36.736703407836274 ], [ -121.628775441780604, 36.734454425410497 ], [ -121.625972591849688, 36.734493032668915 ] ] ] } },
{ "type": "Feature", "properties": { "unit_id": "c-580_r564", "col": -580, "row": 564, "frac_2022": 0.0, "frac_2023": 0.75938767194241685, "perm_water": 0, "x_3310": -144875.0, "y_3310": -141125.0, "county_geoid": "06053", "county": "Monterey", "lon": -121.624595, "lat": 36.735637 }, "geometry": { "type": "Polygon", "coordinates": [ [ [ -121.623169739076332, 36.734531573439469 ], [ -121.623217731458666, 36.736780558086465 ], [ -121.626020667071714, 36.73674201620625 ], [ -121.625972591849688, 36.734493032668915 ], [ -121.623169739076332, 36.734531573439469 ] ] ] } },
{ "type": "Feature", "properties": { "unit_id": "c-574_r564", "col": -574, "row": 564, "frac_2022": 0.0, "frac_2023": 0.6850041881295813, "perm_water": 0, "x_3310": -143375.0, "y_3310": -141125.0, "county_geoid": "06053", "county": "Monterey", "lon": -121.607778, "lat": 36.735867 }, "geometry": { "type": "Polygon", "coordinates": [ [ [ -121.606352563019115, 36.73476142181201 ], [ -121.606400058358076, 36.737010413076597 ], [ -121.60920301092446, 36.736972270137187 ], [ -121.609155432744302, 36.734723279970744 ], [ -121.606352563019115, 36.73476142181201 ] ] ] } },
{ "type": "Feature", "properties": { "unit_id": "c-608_r565", "col": -608, "row": 565, "frac_2022": 0.67934830774276111, "frac_2023": 0.61741940976607657, "perm_water": 0, "x_3310": -151875.0, "y_3310": -141375.0, "county_geoid": "06053", "county": "Monterey", "lon": -121.703025, "lat": 36.732283 }, "geometry": { "type": "Polygon", "coordinates": [ [ [ -121.701598217430885, 36.73117834515574 ], [ -121.701648526253067, 36.733427299773709 ], [ -121.704451297587937, 36.733386897380463 ], [ -121.704400905938186, 36.731137943925539 ], [ -121.701598217430885, 36.73117834515574 ] ] ] } },
{ "type": "Feature", "properties": { "unit_id": "c-607_r565", "col": -607, "row": 565, "frac_2022": 0.64287764288811056, "frac_2023": 0.45673390210755871, "perm_water": 0, "x_3310": -151625.0, "y_3310": -141375.0, "county_geoid": "06053", "county": "Monterey", "lon": -121.700222, "lat": 36.732323 }, "geometry": { "type": "Polygon", "coordinates": [ [ [ -121.698795525949251, 36.731218679902682 ], [ -121.698845751943608, 36.733467635681805 ], [ -121.701648526253067, 36.733427299773709 ], [ -121.701598217430885, 36.73117834515574 ], [ -121.698795525949251, 36.731218679902682 ] ] ] } },
{ "type": "Feature", "properties": { "unit_id": "c-580_r565", "col": -580, "row": 565, "frac_2022": 0.0, "frac_2023": 0.82805817557219097, "perm_water": 0, "x_3310": -144875.0, "y_3310": -141375.0, "county_geoid": "06053", "county": "Monterey", "lon": -121.624547, "lat": 36.733388 }, "geometry": { "type": "Polygon", "coordinates": [ [ [ -121.623121749531549, 36.732282587032692 ], [ -121.623169739076332, 36.734531573439469 ], [ -121.625972591849688, 36.734493032668915 ], [ -121.625924519470104, 36.732244047371623 ], [ -121.623121749531549, 36.732282587032692 ] ] ] } },
{ "type": "Feature", "properties": { "unit_id": "c-623_r566", "col": -623, "row": 566, "frac_2022": 0.70766047651974995, "frac_2023": 0.61815203909532934, "perm_water": 0, "x_3310": -155625.0, "y_3310": -141625.0, "county_geoid": "06053", "county": "Monterey", "lon": -121.745014, "lat": 36.72942 }, "geometry": { "type": "Polygon", "coordinates": [ [ [ -121.743586681835396, 36.72831640728009 ], [ -121.74363822999544, 36.730565346020512 ], [ -121.746440873300571, 36.730523947554133 ], [ -121.746389242321868, 36.728275010005312 ], [ -121.743586681835396, 36.72831640728009 ] ] ] } },
{ "type": "Feature", "properties": { "unit_id": "c-593_r567", "col": -593, "row": 567, "frac_2022": 0.0, "frac_2023": 0.63202698436241211, "perm_water": 0, "x_3310": -148125.0, "y_3310": -141875.0, "county_geoid": "06053", "county": "Monterey", "lon": -121.660885, "lat": 36.728383 }, "geometry": { "type": "Polygon", "coordinates": [ [ [ -121.659459411590461, 36.727278436596286 ], [ -121.659508472166138, 36.729527411963325 ], [ -121.662311121947923, 36.729488009126705 ], [ -121.662261978550546, 36.727239034893778 ], [ -121.659459411590461, 36.727278436596286 ] ] ] } },
{ "type": "Feature", "properties": { "unit_id": "c-597_r569", "col": -597, "row": 569, "frac_2022": 0.0, "frac_2023": 0.74791497396281748, "perm_water": 0, "x_3310": -149125.0, "y_3310": -142375.0, "county_geoid": "06053", "county": "Monterey", "lon": -121.671997, "lat": 36.723727 }, "geometry": { "type": "Polygon", "coordinates": [ [ [ -121.670570887017348, 36.722622483944001 ], [ -121.670620273038551, 36.724871458310524 ], [ -121.673422745532335, 36.724831791826873 ], [ -121.673373276700261, 36.7225828186019 ], [ -121.670570887017348, 36.722622483944001 ] ] ] } },
{ "type": "Feature", "properties": { "unit_id": "c-596_r569", "col": -596, "row": 569, "frac_2022": 0.0, "frac_2023": 0.62694979204877543, "perm_water": 0, "x_3310": -148875.0, "y_3310": -142375.0, "county_geoid": "06053", "county": "Monterey", "lon": -121.669194, "lat": 36.723767 }, "geometry": { "type": "Polygon", "coordinates": [ [ [ -121.667768494414986, 36.722662082809428 ], [ -121.667817797625062, 36.724911058315506 ], [ -121.670620273038551, 36.724871458310524 ], [ -121.670570887017348, 36.722622483944001 ], [ -121.667768494414986, 36.722662082809428 ] ] ] } },
{ "type": "Feature", "properties": { "unit_id": "c-595_r569", "col": -595, "row": 569, "frac_2022": 0.0, "frac_2023": 0.67202054523879762, "perm_water": 0, "x_3310": -148625.0, "y_3310": -142375.0, "county_geoid": "06053", "county": "Monterey", "lon": -121.666392, "lat": 36.723806 }, "geometry": { "type": "Polygon", "coordinates": [ [ [ -121.664966098898034, 36.722701615198005 ], [ -121.665015319296728, 36.72495059184179 ], [ -121.667817797625062, 36.724911058315506 ], [ -121.667768494414986, 36.722662082809428 ], [ -121.664966098898034, 36.722701615198005 ] ] ] } },
{ "type": "Feature", "properties": { "unit_id": "c-628_r570", "col": -628, "row": 570, "frac_2022": 0.030974668487828087, "frac_2023": 0.61445897863481658, "perm_water": 0, "x_3310": -156875.0, "y_3310": -142625.0, "county_geoid": "06053", "county": "Monterey", "lon": -121.758819, "lat": 36.720217 }, "geometry": { "type": "Polygon", "coordinates": [ [ [ -121.757391635409206, 36.719113007296599 ], [ -121.757443585373792, 36.721361947170863 ], [ -121.760245882127009, 36.721320221101422 ], [ -121.760193849364668, 36.719071282427741 ], [ -121.757391635409206, 36.719113007296599 ] ] ] } },
{ "type": "Feature", "properties": { "unit_id": "c-584_r570", "col": -584, "row": 570, "frac_2022": 0.0, "frac_2023": 0.70767920149019292, "perm_water": 0, "x_3310": -145875.0, "y_3310": -142625.0, "county_geoid": "06053", "county": "Monterey", "lon": -121.635517, "lat": 36.721988 }, "geometry": { "type": "Polygon", "coordinates": [ [ [ -121.634091250648893, 36.720883093164417 ], [ -121.634139557249512, 36.723132083973546 ], [ -121.636941984503792, 36.723093282836629 ], [ -121.636893595093866, 36.720844293143962 ], [ -121.634091250648893, 36.720883093164417 ] ] ] } },
{ "type": "Feature", "properties": { "unit_id": "c-583_r572", "col": -583, "row": 572, "frac_2022": 0.0, "frac_2023": 0.62573067129216942, "perm_water": 0, "x_3310": -145625.0, "y_3310": -143125.0, "county_geoid": "06053", "county": "Monterey", "lon": -121.632618, "lat": 36.717529 }, "geometry": { "type": "Polygon", "coordinates": [ [ [ -121.631192464318076, 36.71642383751675 ], [ -121.631240682407963, 36.718672833004561 ], [ -121.634042946903875, 36.718634100574789 ], [ -121.633994646014202, 36.716385106201344 ], [ -121.631192464318076, 36.71642383751675 ] ] ] } },
{ "type": "Feature", "properties": { "unit_id": "c-582_r572", "col": -582, "row": 572, "frac_2022": 0.0, "frac_2023": 0.77260633760222774, "perm_water": 0, "x_3310": -145375.0, "y_3310": -143125.0, "county_geoid": "06053", "county": "Monterey", "lon": -121.629815, "lat": 36.717568 }, "geometry": { "type": "Polygon", "coordinates": [ [ [ -121.62839027977175, 36.716462502359811 ], [ -121.628438415061623, 36.718711498960033 ], [ -121.631240682407963, 36.718672833004561 ], [ -121.631192464318076, 36.71642383751675 ], [ -121.62839027977175, 36.716462502359811 ] ] ] } },
{ "type": "Feature", "properties": { "unit_id": "c-601_r574", "col": -601, "row": 574, "frac_2022": 0.0, "frac_2023": 0.65532110838958579, "perm_water": 0, "x_3310": -150125.0, "y_3310": -143625.0, "county_geoid": "06053", "county": "Monterey", "lon": -121.682958, "lat": 36.712323 }, "geometry": { "type": "Polygon", "coordinates": [ [ [ -121.681531885947848, 36.711218548015779 ], [ -121.681581588518441, 36.713467526734419 ], [ -121.684383635284192, 36.713427600081687 ], [ -121.684333849928194, 36.711178622511582 ], [ -121.681531885947848, 36.711218548015779 ] ] ] } },
{ "type": "Feature", "properties": { "unit_id": "c-572_r574", "col": -572, "row": 574, "frac_2022": 0.027500997510116997, "frac_2023": 0.68382397256239402, "perm_water": 0, "x_3310": -142875.0, "y_3310": -143625.0, "county_geoid": "06053", "county": "Monterey", "lon": -121.601698, "lat": 36.713453 }, "geometry": { "type": "Polygon", "coordinates": [ [ [ -121.600273672460787, 36.712347474187155 ], [ -121.600320974143969, 36.714596485381691 ], [ -121.603123104125658, 36.714558486361135 ], [ -121.603075719649752, 36.712309476259726 ], [ -121.600273672460787, 36.712347474187155 ] ] ] } },
{ "type": "Feature", "properties": { "unit_id": "c-573_r575", "col": -573, "row": 575, "frac_2022": 0.0, "frac_2023": 0.63563954053802707, "perm_water": 0, "x_3310": -143125.0, "y_3310": -143875.0, "county_geoid": "06053", "county": "Monterey", "lon": -121.604453, "lat": 36.711166 }, "geometry": { "type": "Polygon", "coordinates": [ [ [ -121.603028337974607, 36.710060464365888 ], [ -121.603075719649752, 36.712309476259726 ], [ -121.605877764037913, 36.712271411862787 ], [ -121.605830299575146, 36.710022401063831 ], [ -121.603028337974607, 36.710060464365888 ] ] ] } }
]
}
