{
"type": "FeatureCollection",
"name": "01_units_both_polygons",
"crs": { "type": "name", "properties": { "name": "urn:ogc:def:crs:OGC:1.3:CRS84" } },
"features": [
{ "type": "Feature", "properties": { "unit_id": "c-660_r474", "county_geoid": "06087", "county": "Santa Cruz", "col": -660, "row": 474, "x_3310": -164875.0, "y_3310": -118625.0, "lon": -121.85375, "lat": 36.934734, "frac_2022": 0.60992234100560949, "frac_2023": 0.98559999999881409 }, "geometry": { "type": "Polygon", "coordinates": [ [ [ -121.852317229157009, 36.933631621319918 ], [ -121.852372139672681, 36.935880365581973 ], [ -121.855182306125911, 36.935836390638791 ], [ -121.855127312350007, 36.933587647652004 ], [ -121.852317229157009, 36.933631621319918 ] ] ] } },
{ "type": "Feature", "properties": { "unit_id": "c-655_r489", "county_geoid": "06087", "county": "Santa Cruz", "col": -655, "row": 489, "x_3310": -163625.0, "y_3310": -122375.0, "lon": -121.838881, "lat": 36.901222, "frac_2022": 0.66304692864781956, "frac_2023": 0.94563013095260096 }, "geometry": { "type": "Polygon", "coordinates": [ [ [ -121.837449738789743, 36.900119052814915 ], [ -121.837504184575565, 36.90236782578198 ], [ -121.840313118847931, 36.902324203080582 ], [ -121.840258589874352, 36.900075431376948 ], [ -121.837449738789743, 36.900119052814915 ] ] ] } },
{ "type": "Feature", "properties": { "unit_id": "c-654_r489", "county_geoid": "06087", "county": "Santa Cruz", "col": -654, "row": 489, "x_3310": -163375.0, "y_3310": -122375.0, "lon": -121.836073, "lat": 36.901265, "frac_2022": 0.65619459237883693, "frac_2023": 0.90926132766750023 }, "geometry": { "type": "Polygon", "coordinates": [ [ [ -121.834640884479128, 36.90016260762885 ], [ -121.834695247076908, 36.902411381857448 ], [ -121.837504184575565, 36.90236782578198 ], [ -121.837449738789743, 36.900119052814915 ], [ -121.834640884479128, 36.90016260762885 ] ] ] } },
{ "type": "Feature", "properties": { "unit_id": "c-655_r490", "county_geoid": "06087", "county": "Santa Cruz", "col": -655, "row": 490, "x_3310": -163625.0, "y_3310": -122625.0, "lon": -121.838827, "lat": 36.898973, "frac_2022": 0.60470791910420729, "frac_2023": 0.65020570030659575 }, "geometry": { "type": "Polygon", "coordinates": [ [ [ -121.837395296229928, 36.897870278330309 ], [ -121.837449738789743, 36.900119052814915 ], [ -121.840258589874352, 36.900075431376948 ], [ -121.840204064131711, 36.897826658155687 ], [ -121.837395296229928, 36.897870278330309 ] ] ] } },
{ "type": "Feature", "properties": { "unit_id": "c-654_r490", "county_geoid": "06087", "county": "Santa Cruz", "col": -654, "row": 490, "x_3310": -163375.0, "y_3310": -122625.0, "lon": -121.836018, "lat": 36.899016, "frac_2022": 0.75306321340381344, "frac_2023": 0.85797999091093535 }, "geometry": { "type": "Polygon", "coordinates": [ [ [ -121.834586525102424, 36.897913831882846 ], [ -121.834640884479128, 36.90016260762885 ], [ -121.837449738789743, 36.900119052814915 ], [ -121.837395296229928, 36.897870278330309 ], [ -121.834586525102424, 36.897913831882846 ] ] ] } },
{ "type": "Feature", "properties": { "unit_id": "c-648_r490", "county_geoid": "06087", "county": "Santa Cruz", "col": -648, "row": 490, "x_3310": -161875.0, "y_3310": -122625.0, "lon": -121.819165, "lat": 36.899277, "frac_2022": 0.75666924327175966, "frac_2023": 0.86891255848611071 }, "geometry": { "type": "Polygon", "coordinates": [ [ [ -121.817733830873522, 36.898173754127278 ], [ -121.817787691145512, 36.900422537401276 ], [ -121.820596564708623, 36.900379382333938 ], [ -121.820542621251803, 36.898130600309806 ], [ -121.817733830873522, 36.898173754127278 ] ] ] } },
{ "type": "Feature", "properties": { "unit_id": "c-650_r498", "county_geoid": "06087", "county": "Santa Cruz", "col": -650, "row": 498, "x_3310": -162375.0, "y_3310": -124625.0, "lon": -121.82435, "lat": 36.8812, "frac_2022": 0.65578729093506749, "frac_2023": 0.7942708198449101 }, "geometry": { "type": "Polygon", "coordinates": [ [ [ -121.822919310518003, 36.88009707868062 ], [ -121.822973311558698, 36.882345871708907 ], [ -121.825781513387767, 36.88230259341794 ], [ -121.825727429202189, 36.880053801642305 ], [ -121.822919310518003, 36.88009707868062 ] ] ] } },
{ "type": "Feature", "properties": { "unit_id": "c-641_r513", "county_geoid": "06053", "county": "Monterey", "col": -641, "row": 513, "x_3310": -160125.0, "y_3310": -128375.0, "lon": -121.798278, "lat": 36.847854, "frac_2022": 0.91718690444729511, "frac_2023": 0.91858460219210669 }, "geometry": { "type": "Polygon", "coordinates": [ [ [ -121.796847686527641, 36.8467513240656 ], [ -121.796900891963517, 36.849000151822942 ], [ -121.7997078757125, 36.848957491533191 ], [ -121.799654587202994, 36.846708665009004 ], [ -121.796847686527641, 36.8467513240656 ] ] ] } },
{ "type": "Feature", "properties": { "unit_id": "c-632_r513", "county_geoid": "06053", "county": "Monterey", "col": -632, "row": 513, "x_3310": -157875.0, "y_3310": -128375.0, "lon": -121.773015, "lat": 36.848236, "frac_2022": 0.61605744740250845, "frac_2023": 0.81353421843290941 }, "geometry": { "type": "Polygon", "coordinates": [ [ [ -121.771585439275455, 36.847132259488546 ], [ -121.771637897036058, 36.849381098258235 ], [ -121.77444490896336, 36.849339037204317 ], [ -121.774392368126627, 36.847090199650545 ], [ -121.771585439275455, 36.847132259488546 ] ] ] } },
{ "type": "Feature", "properties": { "unit_id": "c-630_r514", "county_geoid": "06053", "county": "Monterey", "col": -630, "row": 514, "x_3310": -157375.0, "y_3310": -128625.0, "lon": -121.767349, "lat": 36.846071, "frac_2022": 0.64117765757564882, "frac_2023": 0.78262003022939708 }, "geometry": { "type": "Polygon", "coordinates": [ [ [ -121.765919283748588, 36.844967336632649 ], [ -121.765971572259829, 36.847216179423306 ], [ -121.768778507318231, 36.847174252746193 ], [ -121.768726135735221, 36.844925411167488 ], [ -121.765919283748588, 36.844967336632649 ] ] ] } },
{ "type": "Feature", "properties": { "unit_id": "c-637_r515", "county_geoid": "06053", "county": "Monterey", "col": -637, "row": 515, "x_3310": -159125.0, "y_3310": -128875.0, "lon": -121.786944, "lat": 36.843527, "frac_2022": 0.62603529771215116, "frac_2023": 0.66837100834739926 }, "geometry": { "type": "Polygon", "coordinates": [ [ [ -121.785514315486964, 36.842423624363882 ], [ -121.785567182364446, 36.84467246022998 ], [ -121.788374012541709, 36.844630068717045 ], [ -121.78832106259928, 36.842381234076157 ], [ -121.785514315486964, 36.842423624363882 ] ] ] } },
{ "type": "Feature", "properties": { "unit_id": "c-632_r563", "county_geoid": "06053", "county": "Monterey", "col": -632, "row": 563, "x_3310": -157875.0, "y_3310": -140875.0, "lon": -121.770394, "lat": 36.735792, "frac_2022": 0.60114954768441942, "frac_2023": 0.6155495476874665 }, "geometry": { "type": "Polygon", "coordinates": [ [ [ -121.768966505748281, 36.734688217084376 ], [ -121.769018808542668, 36.736937139732298 ], [ -121.771821672676026, 36.736895139308494 ], [ -121.771769287050759, 36.734646217869717 ], [ -121.768966505748281, 36.734688217084376 ] ] ] } },
{ "type": "Feature", "properties": { "unit_id": "c-608_r564", "county_geoid": "06053", "county": "Monterey", "col": -608, "row": 564, "x_3310": -151875.0, "y_3310": -141125.0, "lon": -121.703075, "lat": 36.734532, "frac_2022": 0.73051938831587082, "frac_2023": 0.77582698232983027 }, "geometry": { "type": "Polygon", "coordinates": [ [ [ -121.701648526253067, 36.733427299773709 ], [ -121.701698838049865, 36.735676252628323 ], [ -121.704501692217192, 36.735635849071905 ], [ -121.704451297587937, 36.733386897380463 ], [ -121.701648526253067, 36.733427299773709 ] ] ] } },
{ "type": "Feature", "properties": { "unit_id": "c-608_r565", "county_geoid": "06053", "county": "Monterey", "col": -608, "row": 565, "x_3310": -151875.0, "y_3310": -141375.0, "lon": -121.703025, "lat": 36.732283, "frac_2022": 0.67934830774276111, "frac_2023": 0.61741940976607657 }, "geometry": { "type": "Polygon", "coordinates": [ [ [ -121.701598217430885, 36.73117834515574 ], [ -121.701648526253067, 36.733427299773709 ], [ -121.704451297587937, 36.733386897380463 ], [ -121.704400905938186, 36.731137943925539 ], [ -121.701598217430885, 36.73117834515574 ] ] ] } },
{ "type": "Feature", "properties": { "unit_id": "c-623_r566", "county_geoid": "06053", "county": "Monterey", "col": -623, "row": 566, "x_3310": -155625.0, "y_3310": -141625.0, "lon": -121.745014, "lat": 36.72942, "frac_2022": 0.70766047651974995, "frac_2023": 0.61815203909532934 }, "geometry": { "type": "Polygon", "coordinates": [ [ [ -121.743586681835396, 36.72831640728009 ], [ -121.74363822999544, 36.730565346020512 ], [ -121.746440873300571, 36.730523947554133 ], [ -121.746389242321868, 36.728275010005312 ], [ -121.743586681835396, 36.72831640728009 ] ] ] } }
]
}
